norad_id,name,regime,epoch,line1,line2,inclination,eccentricity,mean_motion,raan,arg_pericenter,mean_anomaly
43231,O3B FM15,MEO,18283.82588827,1 43231U 18024A   18283.82588827 -.00000031 +00000-0 +00000-0 0 0001\,2 43231 000.0403 004.2194 0002717 195.0852 160.6890 05.0011552901077,0.0403,0.0002717,5.00115529,4.2194,195.0852,160.689
43231,O3B FM15,MEO,18284.42555980,1 43231U 18024A   18284.42555980 -.00000031 +00000-0 +00000-0 0 0001\,2 43231 000.0403 004.3492 0002720 195.6050 160.0391 05.0011554701080,0.0403,0.000272,5.00115547,4.3492,195.605,160.0391
43231,O3B FM15,MEO,18284.62545032,1 43231U 18024A   18284.62545032 -.00000031 +00000-0 +00000-0 0 0001\,2 43231 000.0403 004.3775 0002720 195.7770 159.8388 05.0011555201081,0.0403,0.000272,5.00115552,4.3775,195.777,159.8388
43231,O3B FM15,MEO,18285.22512206,1 43231U 18024A   18285.22512206 -.00000031 +00000-0 +00000-0 0 0001\,2 43231 000.0403 004.4558 0002721 196.3437 159.1935 05.0011555201084,0.0403,0.0002721,5.00115552,4.4558,196.3437,159.1935
43231,O3B FM15,MEO,18286.42446525,1 43231U 18024A   18286.42446525 -.00000032 +00000-0 +00000-0 0 0001\,2 43231 000.0403 004.5416 0002723 197.4860 157.9651 05.0011557201090,0.0403,0.0002723,5.00115572,4.5416,197.486,157.9651
43231,O3B FM15,MEO,18286.82424635,1 43231U 18024A   18286.82424635 -.00000032 +00000-0 +00000-0 0 0001\,2 43231 000.0402 004.5927 0002723 197.8292 157.5707 05.0011557601092,0.0402,0.0002723,5.00115576,4.5927,197.8292,157.5707
43231,O3B FM15,MEO,18287.42391804,1 43231U 18024A   18287.42391804 -.00000032 +00000-0 +00000-0 0 0001\,2 43231 000.0402 004.7211 0002723 198.1709 157.1004 05.0011558101095,0.0402,0.0002723,5.00115581,4.7211,198.1709,157.1004
43231,O3B FM15,MEO,18288.62326142,1 43231U 18024A   18288.62326142 -.00000032  00000-0  00000+0 0   504\,2 43231   0.0402   4.9641 0002725 199.0565 155.9715  5.00115586 11024,0.0402,0.0002725,5.00115586,4.9641,199.0565,155.9715
43231,O3B FM15,MEO,18289.62271401,1 43231U 18024A   18289.62271401 -.00000031 +00000-0 +00000-0 0 0001\,2 43231 000.0402 005.1309 0002725 199.9597 154.9011 05.0011560201106,0.0402,0.0002725,5.00115602,5.1309,199.9597,154.9011
43231,O3B FM15,MEO,18290.42227642,1 43231U 18024A   18290.42227642 -.00000030 +00000-0 +00000-0 0 0001\,2 43231 000.0401 005.2225 0002727 200.6536 154.1154 05.0011558801110,0.0401,0.0002727,5.00115588,5.2225,200.6536,154.1154
43231,O3B FM15,MEO,18291.42172902,1 43231U 18024A   18291.42172902 -.00000028 +00000-0 +00000-0 0 0001\,2 43231 000.0401 005.1989 0002729 201.5629 153.2296 05.0011560501114,0.0401,0.0002729,5.00115605,5.1989,201.5629,153.2296
43231,O3B FM15,MEO,18292.02140071,1 43231U 18024A   18292.02140071 -.00000027 +00000-0 +00000-0 0 0001\,2 43231 000.0400 005.2205 0002730 201.8058 152.9652 05.0011560901117,0.04,0.000273,5.00115609,5.2205,201.8058,152.9652
43231,O3B FM15,MEO,18294.42008774,1 43231U 18024A   18294.42008774 -.00000022  00000-0  00000+0 0   517\,2 43231   0.0399   5.4707 0002734 203.8798 150.6409  5.00115584 11312,0.0399,0.0002734,5.00115584,5.4707,203.8798,150.6409
43231,O3B FM15,MEO,18294.61997848,1 43231U 18024A   18294.61997848 -.00000022 +00000-0 +00000-0 0 0001\,2 43231 000.0399 005.5580 0002735 204.4827 149.9504 05.0011556201131,0.0399,0.0002735,5.00115562,5.558,204.4827,149.9504
43231,O3B FM15,MEO,18295.61943132,1 43231U 18024A   18295.61943132 -.00000020 +00000-0 +00000-0 0 0001\,2 43231 000.0399 005.6516 0002737 205.5739 148.7655 05.0011555301136,0.0399,0.0002737,5.00115553,5.6516,205.5739,148.7655
43231,O3B FM15,MEO,18296.41899384,1 43231U 18024A   18296.41899384 -.00000018 +00000-0 +00000-0 0 0001\,2 43231 000.0398 005.6925 0002739 206.2860 148.0126 05.0011553001140,0.0398,0.0002739,5.0011553,5.6925,206.286,148.0126
43231,O3B FM15,MEO,18296.81877500,1 43231U 18024A   18296.81877500 -.00000018 +00000-0 +00000-0 0 0001\,2 43231 000.0398 005.6641 0002740 206.6721 147.6548 05.0011552701141,0.0398,0.000274,5.00115527,5.6641,206.6721,147.6548
43231,O3B FM15,MEO,18297.41844682,1 43231U 18024A   18297.41844682 -.00000017 +00000-0 +00000-0 0 0001\,2 43231 000.0398 005.7265 0002741 207.2215 147.0429 05.0011551301145,0.0398,0.0002741,5.00115513,5.7265,207.2215,147.0429
43231,O3B FM15,MEO,18298.61779014,1 43231U 18024A   18298.61779014 -.00000016 +00000-0 +00000-0 0 0001\,2 43231 000.0397 005.8574 0002741 208.3442 145.7891 05.0011550401151,0.0397,0.0002741,5.00115504,5.8574,208.3442,145.7891
43231,O3B FM15,MEO,18299.21746188,1 43231U 18024A   18299.21746188 -.00000016  00000-0  00000+0 0   521\,2 43231   0.0397   6.0071 0002741 208.8946 145.0887  5.00115487 11555,0.0397,0.0002741,5.00115487,6.0071,208.8946,145.0887
43231,O3B FM15,MEO,18299.81713355,1 43231U 18024A   18299.81713355 -.00000016 +00000-0 +00000-0 0 0001\,2 43231 000.0397 006.0100 0002741 209.4438 144.5364 05.0011547801157,0.0397,0.0002741,5.00115478,6.01,209.4438,144.5364
43231,O3B FM15,MEO,18300.81658611,1 43231U 18024A   18300.81658611 -.00000016 +00000-0 +00000-0 0 0001\,2 43231 000.0396 006.1389 0002742 210.3641 143.4864 05.0011547101162,0.0396,0.0002742,5.00115471,6.1389,210.3641,143.4864
43231,O3B FM15,MEO,18301.41625759,1 43231U 18024A   18301.41625759 -.00000017 +00000-0 +00000-0 0 0001\,2 43231 000.0396 006.2192 0002740 210.7775 142.9924 05.0011547301165,0.0396,0.000274,5.00115473,6.2192,210.7775,142.9924
43231,O3B FM15,MEO,18302.01592920,1 43231U 18024A   18302.01592920 -.00000018 +00000-0 +00000-0 0 0001\,2 43231 000.0396 006.3659 0002740 211.2187 142.4039 05.0011545901168,0.0396,0.000274,5.00115459,6.3659,211.2187,142.4039
43231,O3B FM15,MEO,18302.61560070,1 43231U 18024A   18302.61560070 -.00000018 +00000-0 +00000-0 0 0001\,2 43231 000.0395 006.4246 0002741 211.7601 141.8032 05.0011545401171,0.0395,0.0002741,5.00115454,6.4246,211.7601,141.8032
43231,O3B FM15,MEO,18303.41516259,1 43231U 18024A   18303.41516259 -.00000020  00000-0  00000+0 0   539\,2 43231   0.0395   6.3998 0002741 212.7026 140.8846  5.00115455 11763,0.0395,0.0002741,5.00115455,6.3998,212.7026,140.8846
43231,O3B FM15,MEO,18303.41516268,1 43231U 18024A   18303.41516268 -.00000020 +00000-0 +00000-0 0 0001\,2 43231 000.0395 006.4963 0002741 212.6982 140.7925 05.0011544501175,0.0395,0.0002741,5.00115445,6.4963,212.6982,140.7925
43231,O3B FM15,MEO,18304.81439636,1 43231U 18024A   18304.81439636 -.00000022 +00000-0 +00000-0 0 0001\,2 43231 000.0394 006.5220 0002743 214.1246 139.3389 05.0011542601182,0.0394,0.0002743,5.00115426,6.522,214.1246,139.3389
43231,O3B FM15,MEO,18306.01373929,1 43231U 18024A   18306.01373929 -.00000024 +00000-0 +00000-0 0 0001\,2 43231 000.0394 006.5754 0002742 215.2104 138.1987 05.0011544201187,0.0394,0.0002742,5.00115442,6.5754,215.2104,138.1987
43231,O3B FM15,MEO,18307.01319182,1 43231U 18024A   18307.01319182 -.00000025 +00000-0 +00000-0 0 0001\,2 43231 000.0393 006.6350 0002740 215.6575 137.6916 05.0011546101193,0.0393,0.000274,5.00115461,6.635,215.6575,137.6916
43231,O3B FM15,MEO,18309.01209740,1 43231U 18024A   18309.01209740 -.00000026  00000-0  00000+0 0   542\,2 43231   0.0392   6.7950 0002741 217.3715 135.8165  5.00115477 12042,0.0392,0.0002741,5.00115477,6.795,217.3715,135.8165
43231,O3B FM15,MEO,18309.81165991,1 43231U 18024A   18309.81165991 -.00000026 +00000-0 +00000-0 0 0001\,2 43231 000.0391 006.8246 0002743 218.3647 134.7934 05.0011546501206,0.0391,0.0002743,5.00115465,6.8246,218.3647,134.7934
43231,O3B FM15,MEO,18310.41133163,1 43231U 18024A   18310.41133163 -.00000027 +00000-0 +00000-0 0 0001\,2 43231 000.0391 006.8713 0002743 219.0401 134.0711 05.0011547101210,0.0391,0.0002743,5.00115471,6.8713,219.0401,134.0711
43231,O3B FM15,MEO,18310.61122217,1 43231U 18024A   18310.61122217 -.00000027 +00000-0 +00000-0 0 0001\,2 43231 000.0391 006.9464 0002744 219.1695 133.8665 05.0011547801211,0.0391,0.0002744,5.00115478,6.9464,219.1695,133.8665
43231,O3B FM15,MEO,18311.41078461,1 43231U 18024A   18311.41078461 -.00000027 +00000-0 +00000-0 0 0001\,2 43231 000.0390 006.9351 0002744 219.9335 133.1137 05.0011547701215,0.039,0.0002744,5.00115477,6.9351,219.9335,133.1137
43231,O3B FM15,MEO,18311.61067526,1 43231U 18024A   18311.61067526 -.00000027 +00000-0 +00000-0 0 0001\,2 43231 000.0390 007.0081 0002745 220.1015 132.8726 05.0011547301216,0.039,0.0002745,5.00115473,7.0081,220.1015,132.8726
43231,O3B FM15,MEO,18312.41023743,1 43231U 18024A   18312.41023743 -.00000028 +00000-0 +00000-0 0 0001\,2 43231 000.0390 007.0603 0002746 220.8541 132.0675 05.0011549401220,0.039,0.0002746,5.00115494,7.0603,220.8541,132.0675
43231,O3B FM15,MEO,18312.81001848,1 43231U 18024A   18312.81001848 -.00000028 +00000-0 +00000-0 0 0001\,2 43231 000.0390 007.0116 0002746 221.3362 131.6340 05.0011550401222,0.039,0.0002746,5.00115504,7.0116,221.3362,131.634
43231,O3B FM15,MEO,18313.20979970,1 43231U 18024A   18313.20979970 -.00000028  00000-0  00000+0 0   550\,2 43231   0.0389   7.0508 0002747 221.6779 131.2530  5.00115503 12254,0.0389,0.0002747,5.00115503,7.0508,221.6779,131.253
43231,O3B FM15,MEO,18313.60958079,1 43231U 18024A   18313.60958079 -.00000028 +00000-0 +00000-0 0 0001\,2 43231 000.0389 007.1401 0002748 222.0178 130.8236 05.0011551301226,0.0389,0.0002748,5.00115513,7.1401,222.0178,130.8236
43231,O3B FM15,MEO,18314.60903365,1 43231U 18024A   18314.60903365 -.00000028 +00000-0 +00000-0 0 0001\,2 43231 000.0389 007.2084 0002750 222.9289 129.8438 05.0011552301231,0.0389,0.000275,5.00115523,7.2084,222.9289,129.8438
43231,O3B FM15,MEO,18315.80837712,1 43231U 18024A   18315.80837712 -.00000028 +00000-0 +00000-0 0 0001\,2 43231 000.0388 007.2393 0002752 224.0841 128.6574 05.0011552601237,0.0388,0.0002752,5.00115526,7.2393,224.0841,128.6574
43231,O3B FM15,MEO,18316.60793947,1 43231U 18024A   18316.60793947 -.00000028 +00000-0 +00000-0 0 0001\,2 43231 000.0388 007.3679 0002754 224.8245 127.7881 05.0011552701241,0.0388,0.0002754,5.00115527,7.3679,224.8245,127.7881
